{
  "type": "FeatureCollection",
  "features": [
    {
      "type": "Feature",
      "properties": {
        "norad_id": 34459,
        "name": "COSMOS 2251 DEB",
        "group": "cosmos-2251-debris",
        "lat": 47.35695419689946,
        "lon": -80.6997277660197,
        "alt_km": 855.9841197616479,
        "timestamp": "2025-12-08T13:49:32.188588+00:00",
        "meta_object_name": "COSMOS 2251 DEB",
        "meta_object_id": "1993-036TC",
        "meta_epoch": "2025-12-08T05:01:18.648768",
        "meta_mean_motion": 14.00487665,
        "meta_eccentricity": 0.01920138,
        "meta_inclination": 74.0792,
        "meta_ra_of_asc_node": 261.8788,
        "meta_arg_of_pericenter": 332.6797,
        "meta_mean_anomaly": 26.4335,
        "meta_ephemeris_type": 0,
        "meta_classification_type": "U",
        "meta_norad_cat_id": 34459,
        "meta_element_set_no": 999,
        "meta_rev_at_epoch": 85648,
        "meta_bstar": 0.00098859796,
        "meta_mean_motion_dot": 1.697e-05,
        "meta_mean_motion_ddot": 0,
        "tle_line1": "1 34459U 93036TC  25342.20924362  .00001697  00000+0  98860-3 0  9996",
        "tle_line2": "2 34459  74.0792 261.8788 0192013 332.6797  26.4335 14.00487665856484"
      },
      "geometry": {
        "type": "Point",
        "coordinates": [
          -80.6997277660197,
          47.35695419689946
        ]
      }
    },
    {
      "type": "Feature",
      "properties": {
        "norad_id": 34464,
        "name": "COSMOS 2251 DEB",
        "group": "cosmos-2251-debris",
        "lat": 71.62351885317543,
        "lon": -152.6874208428999,
        "alt_km": 491.24028258448743,
        "timestamp": "2025-12-08T13:49:32.188599+00:00",
        "meta_object_name": "COSMOS 2251 DEB",
        "meta_object_id": "1993-036TH",
        "meta_epoch": "2025-12-08T07:05:55.195872",
        "meta_mean_motion": 15.26079128,
        "meta_eccentricity": 0.00168478,
        "meta_inclination": 73.9909,
        "meta_ra_of_asc_node": 87.7092,
        "meta_arg_of_pericenter": 263.5735,
        "meta_mean_anomaly": 96.3547,
        "meta_ephemeris_type": 0,
        "meta_classification_type": "U",
        "meta_norad_cat_id": 34464,
        "meta_element_set_no": 999,
        "meta_rev_at_epoch": 89772,
        "meta_bstar": 0.0034316084,
        "meta_mean_motion_dot": 0.00089874,
        "meta_mean_motion_ddot": 0,
        "tle_line1": "1 34464U 93036TH  25342.29577773  .00089874  00000+0  34316-2 0  9999",
        "tle_line2": "2 34464  73.9909  87.7092 0016847 263.5735  96.3547 15.26079128897728"
      },
      "geometry": {
        "type": "Point",
        "coordinates": [
          -152.6874208428999,
          71.62351885317543
        ]
      }
    },
    {
      "type": "Feature",
      "properties": {
        "norad_id": 34468,
        "name": "COSMOS 2251 DEB",
        "group": "cosmos-2251-debris",
        "lat": 61.594151858618076,
        "lon": 157.0164770833012,
        "alt_km": 776.4700208811892,
        "timestamp": "2025-12-08T13:49:32.188609+00:00",
        "meta_object_name": "COSMOS 2251 DEB",
        "meta_object_id": "1993-036TM",
        "meta_epoch": "2025-12-08T03:34:01.409952",
        "meta_mean_motion": 14.47605132,
        "meta_eccentricity": 0.00763524,
        "meta_inclination": 74.0128,
        "meta_ra_of_asc_node": 125.8051,
        "meta_arg_of_pericenter": 271.6632,
        "meta_mean_anomaly": 87.5783,
        "meta_ephemeris_type": 0,
        "meta_classification_type": "U",
        "meta_norad_cat_id": 34468,
        "meta_element_set_no": 999,
        "meta_rev_at_epoch": 88395,
        "meta_bstar": 0.0004977959,
        "meta_mean_motion_dot": 1.872e-05,
        "meta_mean_motion_ddot": 0,
        "tle_line1": "1 34468U 93036TM  25342.14862743  .00001872  00000+0  49780-3 0  9995",
        "tle_line2": "2 34468  74.0128 125.8051 0076352 271.6632  87.5783 14.47605132883955"
      },
      "geometry": {
        "type": "Point",
        "coordinates": [
          157.0164770833012,
          61.594151858618076
        ]
      }
    },
    {
      "type": "Feature",
      "properties": {
        "norad_id": 34472,
        "name": "COSMOS 2251 DEB",
        "group": "cosmos-2251-debris",
        "lat": 15.473962109624509,
        "lon": -79.53921011072147,
        "alt_km": 921.2623252385292,
        "timestamp": "2025-12-08T13:49:32.188620+00:00",
        "meta_object_name": "COSMOS 2251 DEB",
        "meta_object_id": "1993-036TR",
        "meta_epoch": "2025-12-07T14:13:07.496832",
        "meta_mean_motion": 13.70317766,
        "meta_eccentricity": 0.03280286,
        "meta_inclination": 74.0829,
        "meta_ra_of_asc_node": 106.6088,
        "meta_arg_of_pericenter": 238.7453,
        "meta_mean_anomaly": 118.1152,
        "meta_ephemeris_type": 0,
        "meta_classification_type": "U",
        "meta_norad_cat_id": 34472,
        "meta_element_set_no": 999,
        "meta_rev_at_epoch": 83656,
        "meta_bstar": 0.001313652,
        "meta_mean_motion_dot": 1.672e-05,
        "meta_mean_motion_ddot": 0,
        "tle_line1": "1 34472U 93036TR  25341.59244788  .00001672  00000+0  13137-2 0  9995",
        "tle_line2": "2 34472  74.0829 106.6088 0328028 238.7453 118.1152 13.70317766836564"
      },
      "geometry": {
        "type": "Point",
        "coordinates": [
          -79.53921011072147,
          15.473962109624509
        ]
      }
    },
    {
      "type": "Feature",
      "properties": {
        "norad_id": 34474,
        "name": "COSMOS 2251 DEB",
        "group": "cosmos-2251-debris",
        "lat": 53.331480743080554,
        "lon": 130.90231958936093,
        "alt_km": 826.6930774291759,
        "timestamp": "2025-12-08T13:49:32.188630+00:00",
        "meta_object_name": "COSMOS 2251 DEB",
        "meta_object_id": "1993-036TT",
        "meta_epoch": "2025-12-08T01:37:12.859680",
        "meta_mean_motion": 14.06364949,
        "meta_eccentricity": 0.0198023,
        "meta_inclination": 74.078,
        "meta_ra_of_asc_node": 334.3343,
        "meta_arg_of_pericenter": 49.4072,
        "meta_mean_anomaly": 18.0513,
        "meta_ephemeris_type": 0,
        "meta_classification_type": "U",
        "meta_norad_cat_id": 34474,
        "meta_element_set_no": 999,
        "meta_rev_at_epoch": 85443,
        "meta_bstar": 0.00209856,
        "meta_mean_motion_dot": 4.115e-05,
        "meta_mean_motion_ddot": 0,
        "tle_line1": "1 34474U 93036TT  25342.06750995  .00004115  00000+0  20986-2 0  9997",
        "tle_line2": "2 34474  74.0780 334.3343 0198023  49.4072  18.0513 14.06364949854430"
      },
      "geometry": {
        "type": "Point",
        "coordinates": [
          130.90231958936093,
          53.331480743080554
        ]
      }
    },
    {
      "type": "Feature",
      "properties": {
        "norad_id": 34476,
        "name": "COSMOS 2251 DEB",
        "group": "cosmos-2251-debris",
        "lat": 71.14466323489142,
        "lon": -147.5989214360143,
        "alt_km": 1150.7430093677413,
        "timestamp": "2025-12-08T13:49:32.188641+00:00",
        "meta_object_name": "COSMOS 2251 DEB",
        "meta_object_id": "1993-036TV",
        "meta_epoch": "2025-12-06T17:54:22.363488",
        "meta_mean_motion": 13.81942148,
        "meta_eccentricity": 0.0319344,
        "meta_inclination": 74.0061,
        "meta_ra_of_asc_node": 92.6058,
        "meta_arg_of_pericenter": 313.5001,
        "meta_mean_anomaly": 43.9973,
        "meta_ephemeris_type": 0,
        "meta_classification_type": "U",
        "meta_norad_cat_id": 34476,
        "meta_element_set_no": 999,
        "meta_rev_at_epoch": 83555,
        "meta_bstar": 0.0048589185,
        "meta_mean_motion_dot": 7.676e-05,
        "meta_mean_motion_ddot": 0,
        "tle_line1": "1 34476U 93036TV  25340.74609217  .00007676  00000+0  48589-2 0  9996",
        "tle_line2": "2 34476  74.0061  92.6058 0319344 313.5001  43.9973 13.81942148835553"
      },
      "geometry": {
        "type": "Point",
        "coordinates": [
          -147.5989214360143,
          71.14466323489142
        ]
      }
    },
    {
      "type": "Feature",
      "properties": {
        "norad_id": 34477,
        "name": "COSMOS 2251 DEB",
        "group": "cosmos-2251-debris",
        "lat": -45.33664973569703,
        "lon": 60.53422574953594,
        "alt_km": 672.4951307752044,
        "timestamp": "2025-12-08T13:49:32.188651+00:00",
        "meta_object_name": "COSMOS 2251 DEB",
        "meta_object_id": "1993-036TW",
        "meta_epoch": "2025-12-08T07:44:16.756224",
        "meta_mean_motion": 14.56811499,
        "meta_eccentricity": 0.00769153,
        "meta_inclination": 73.9792,
        "meta_ra_of_asc_node": 77.9186,
        "meta_arg_of_pericenter": 265.8832,
        "meta_mean_anomaly": 156.0898,
        "meta_ephemeris_type": 0,
        "meta_classification_type": "U",
        "meta_norad_cat_id": 34477,
        "meta_element_set_no": 999,
        "meta_rev_at_epoch": 88561,
        "meta_bstar": 0.0012698439,
        "meta_mean_motion_dot": 5.893e-05,
        "meta_mean_motion_ddot": 0,
        "tle_line1": "1 34477U 93036TW  25342.32241616  .00005893  00000+0  12698-2 0  9999",
        "tle_line2": "2 34477  73.9792  77.9186 0076915 265.8832 156.0898 14.56811499885617"
      },
      "geometry": {
        "type": "Point",
        "coordinates": [
          60.53422574953594,
          -45.33664973569703
        ]
      }
    }
  ]
}